[{"OBJECT_NAME":"STARLINK-6265","OBJECT_ID":"2023-065BG","EPOCH":"2025-11-03T23:53:49.627392","MEAN_MOTION":15.02535419,"ECCENTRICITY":0.0001132,"INCLINATION":43.0024,"RA_OF_ASC_NODE":185.7764,"ARG_OF_PERICENTER":263.5168,"MEAN_ANOMALY":96.5545,"EPHEMERIS_TYPE":0,"CLASSIFICATION_TYPE":"U","NORAD_CAT_ID":56557,"ELEMENT_SET_NO":999,"REV_AT_EPOCH":13757,"BSTAR":0.00010201732,"MEAN_MOTION_DOT":1.175e-5,"MEAN_MOTION_DDOT":0},{"OBJECT_NAME":"STARLINK-6286","OBJECT_ID":"2023-065BH","EPOCH":"2025-11-04T08:45:12.269376","MEAN_MOTION":15.02551575,"ECCENTRICITY":0.0001207,"INCLINATION":43.0028,"RA_OF_ASC_NODE":184.2333,"ARG_OF_PERICENTER":271.2211,"MEAN_ANOMALY":88.8493,"EPHEMERIS_TYPE":0,"CLASSIFICATION_TYPE":"U","NORAD_CAT_ID":56558,"ELEMENT_SET_NO":999,"REV_AT_EPOCH":13762,"BSTAR":0.00012291,"MEAN_MOTION_DOT":1.458e-5,"MEAN_MOTION_DDOT":0},{"OBJECT_NAME":"STARLINK-30122","OBJECT_ID":"2023-067A","EPOCH":"2025-11-04T02:43:05.517120","MEAN_MOTION":15.02536956,"ECCENTRICITY":7.841e-5,"INCLINATION":43.0033,"RA_OF_ASC_NODE":237.3312,"ARG_OF_PERICENTER":264.3672,"MEAN_ANOMALY":95.7081,"EPHEMERIS_TYPE":0,"CLASSIFICATION_TYPE":"U","NORAD_CAT_ID":56688,"ELEMENT_SET_NO":999,"REV_AT_EPOCH":13683,"BSTAR":-4.6404401e-5,"MEAN_MOTION_DOT":-8.3e-6,"MEAN_MOTION_DDOT":0},{"OBJECT_NAME":"STARLINK-30129","OBJECT_ID":"2023-067B","EPOCH":"2025-11-04T02:28:42.530592","MEAN_MOTION":15.02531439,"ECCENTRICITY":0.00013696,"INCLINATION":43.0038,"RA_OF_ASC_NODE":237.2638,"ARG_OF_PERICENTER":277.1015,"MEAN_ANOMALY":82.9672,"EPHEMERIS_TYPE":0,"CLASSIFICATION_TYPE":"U","NORAD_CAT_ID":56689,"ELEMENT_SET_NO":999,"REV_AT_EPOCH":13676,"BSTAR":0.00013829985,"MEAN_MOTION_DOT":1.665e-5,"MEAN_MOTION_DDOT":0},{"OBJECT_NAME":"STARLINK-30124","OBJECT_ID":"2023-067C","EPOCH":"2025-11-04T02:23:54.663936","MEAN_MOTION":15.02539086,"ECCENTRICITY":0.00011186,"INCLINATION":43.0043,"RA_OF_ASC_NODE":237.2464,"ARG_OF_PERICENTER":270.9888,"MEAN_ANOMALY":89.0826,"EPHEMERIS_TYPE":0,"CLASSIFICATION_TYPE":"U","NORAD_CAT_ID":56690,"ELEMENT_SET_NO":999,"REV_AT_EPOCH":13676,"BSTAR":9.8505747e-5,"MEAN_MOTION_DOT":1.127e-5,"MEAN_MOTION_DDOT":0},{"OBJECT_NAME":"STARLINK-30036","OBJECT_ID":"2023-067E","EPOCH":"2025-11-04T02:14:19.405824","MEAN_MOTION":15.02533729,"ECCENTRICITY":0.00012635,"INCLINATION":43.0045,"RA_OF_ASC_NODE":237.2124,"ARG_OF_PERICENTER":266.732,"MEAN_ANOMALY":93.3378,"EPHEMERIS_TYPE":0,"CLASSIFICATION_TYPE":"U","NORAD_CAT_ID":56692,"ELEMENT_SET_NO":999,"REV_AT_EPOCH":13563,"BSTAR":-5.6951934e-5,"MEAN_MOTION_DOT":-9.73e-6,"MEAN_MOTION_DDOT":0},{"OBJECT_NAME":"STARLINK-30067","OBJECT_ID":"2023-067F","EPOCH":"2025-11-04T02:04:44.215968","MEAN_MOTION":15.025382,"ECCENTRICITY":0.00011723,"INCLINATION":43.0035,"RA_OF_ASC_NODE":237.1642,"ARG_OF_PERICENTER":270.1603,"MEAN_ANOMALY":89.9105,"EPHEMERIS_TYPE":0,"CLASSIFICATION_TYPE":"U","NORAD_CAT_ID":56693,"ELEMENT_SET_NO":999,"REV_AT_EPOCH":13676,"BSTAR":8.1435635e-5,"MEAN_MOTION_DOT":8.97e-6,"MEAN_MOTION_DDOT":0},{"OBJECT_NAME":"STARLINK-30126","OBJECT_ID":"2023-067G","EPOCH":"2025-11-04T02:09:31.496832","MEAN_MOTION":15.02531825,"ECCENTRICITY":0.00012047,"INCLINATION":43.0031,"RA_OF_ASC_NODE":237.1878,"ARG_OF_PERICENTER":274.7261,"MEAN_ANOMALY":85.3444,"EPHEMERIS_TYPE":0,"CLASSIFICATION_TYPE":"U","NORAD_CAT_ID":56694,"ELEMENT_SET_NO":999,"REV_AT_EPOCH":13676,"BSTAR":0.0001780358,"MEAN_MOTION_DOT":2.202e-5,"MEAN_MOTION_DDOT":0},{"OBJECT_NAME":"STARLINK-30121","OBJECT_ID":"2023-067H","EPOCH":"2025-11-04T01:59:54.787200","MEAN_MOTION":15.02550288,"ECCENTRICITY":8.027e-5,"INCLINATION":43.0033,"RA_OF_ASC_NODE":237.1154,"ARG_OF_PERICENTER":225.8551,"MEAN_ANOMALY":134.2225,"EPHEMERIS_TYPE":0,"CLASSIFICATION_TYPE":"U","NORAD_CAT_ID":56695,"ELEMENT_SET_NO":999,"REV_AT_EPOCH":13676,"BSTAR":7.4820409e-5,"MEAN_MOTION_DOT":8.08e-6,"MEAN_MOTION_DDOT":0},{"OBJECT_NAME":"STARLINK-30130","OBJECT_ID":"2023-067K","EPOCH":"2025-11-03T20:34:24.731616","MEAN_MOTION":15.02528315,"ECCENTRICITY":0.0001046,"INCLINATION":43.0032,"RA_OF_ASC_NODE":238.0193,"ARG_OF_PERICENTER":273.431,"MEAN_ANOMALY":86.6413,"EPHEMERIS_TYPE":0,"CLASSIFICATION_TYPE":"U","NORAD_CAT_ID":56697,"ELEMENT_SET_NO":999,"REV_AT_EPOCH":13647,"BSTAR":-6.3545e-5,"MEAN_MOTION_DOT":-1.062e-5,"MEAN_MOTION_DDOT":0},{"OBJECT_NAME":"STARLINK-30068","OBJECT_ID":"2023-067L","EPOCH":"2025-11-03T11:09:59.642496","MEAN_MOTION":15.02536691,"ECCENTRICITY":0.00010791,"INCLINATION":43.0035,"RA_OF_ASC_NODE":227.2488,"ARG_OF_PERICENTER":266.0959,"MEAN_ANOMALY":93.976,"EPHEMERIS_TYPE":0,"CLASSIFICATION_TYPE":"U","NORAD_CAT_ID":56698,"ELEMENT_SET_NO":999,"REV_AT_EPOCH":13656,"BSTAR":4.8312447e-5,"MEAN_MOTION_DOT":4.49e-6,"MEAN_MOTION_DDOT":0},{"OBJECT_NAME":"STARLINK-30127","OBJECT_ID":"2023-067M","EPOCH":"2025-11-04T01:55:09.140160","MEAN_MOTION":15.02537976,"ECCENTRICITY":0.00011497,"INCLINATION":43.0024,"RA_OF_ASC_NODE":237.1127,"ARG_OF_PERICENTER":268.0377,"MEAN_ANOMALY":92.0334,"EPHEMERIS_TYPE":0,"CLASSIFICATION_TYPE":"U","NORAD_CAT_ID":56699,"ELEMENT_SET_NO":999,"REV_AT_EPOCH":13676,"BSTAR":-7.5108775e-5,"MEAN_MOTION_DOT":-1.218e-5,"MEAN_MOTION_DDOT":0},{"OBJECT_NAME":"STARLINK-30053","OBJECT_ID":"2023-067N","EPOCH":"2025-11-04T01:50:20.952096","MEAN_MOTION":15.02547805,"ECCENTRICITY":0.00015994,"INCLINATION":43.0038,"RA_OF_ASC_NODE":237.0904,"ARG_OF_PERICENTER":282.594,"MEAN_ANOMALY":77.4723,"EPHEMERIS_TYPE":0,"CLASSIFICATION_TYPE":"U","NORAD_CAT_ID":56700,"ELEMENT_SET_NO":999,"REV_AT_EPOCH":13676,"BSTAR":-9.4299835e-5,"MEAN_MOTION_DOT":-1.478e-5,"MEAN_MOTION_DDOT":0},{"OBJECT_NAME":"STARLINK-30125","OBJECT_ID":"2023-067P","EPOCH":"2025-11-04T01:45:33.435360","MEAN_MOTION":15.02539617,"ECCENTRICITY":8.641e-5,"INCLINATION":43.003,"RA_OF_ASC_NODE":237.0638,"ARG_OF_PERICENTER":257.7441,"MEAN_ANOMALY":102.3304,"EPHEMERIS_TYPE":0,"CLASSIFICATION_TYPE":"U","NORAD_CAT_ID":56701,"ELEMENT_SET_NO":999,"REV_AT_EPOCH":13676,"BSTAR":-0.00025326206,"MEAN_MOTION_DOT":-3.623e-5,"MEAN_MOTION_DDOT":0},{"OBJECT_NAME":"STARLINK-30117","OBJECT_ID":"2023-067Q","EPOCH":"2025-11-04T02:38:17.690208","MEAN_MOTION":15.02534621,"ECCENTRICITY":9.417e-5,"INCLINATION":42.9997,"RA_OF_ASC_NODE":237.2712,"ARG_OF_PERICENTER":265.7963,"MEAN_ANOMALY":94.2771,"EPHEMERIS_TYPE":0,"CLASSIFICATION_TYPE":"U","NORAD_CAT_ID":56702,"ELEMENT_SET_NO":999,"REV_AT_EPOCH":13676,"BSTAR":-1.8194662e-5,"MEAN_MOTION_DOT":-4.49e-6,"MEAN_MOTION_DDOT":0},{"OBJECT_NAME":"STARLINK-30132","OBJECT_ID":"2023-067R","EPOCH":"2025-11-04T01:40:42.609504","MEAN_MOTION":15.02752033,"ECCENTRICITY":0.00023343,"INCLINATION":43.0036,"RA_OF_ASC_NODE":237.032,"ARG_OF_PERICENTER":253.28,"MEAN_ANOMALY":106.7787,"EPHEMERIS_TYPE":0,"CLASSIFICATION_TYPE":"U","NORAD_CAT_ID":56703,"ELEMENT_SET_NO":999,"REV_AT_EPOCH":13676,"BSTAR":-0.0037881519,"MEAN_MOTION_DOT":-0.00051299,"MEAN_MOTION_DDOT":0},{"OBJECT_NAME":"STARLINK-30066","OBJECT_ID":"2023-067S","EPOCH":"2025-11-03T20:24:49.197888","MEAN_MOTION":15.0254287,"ECCENTRICITY":0.0002117,"INCLINATION":43.0055,"RA_OF_ASC_NODE":237.9555,"ARG_OF_PERICENTER":272.6613,"MEAN_ANOMALY":87.3987,"EPHEMERIS_TYPE":0,"CLASSIFICATION_TYPE":"U","NORAD_CAT_ID":56704,"ELEMENT_SET_NO":999,"REV_AT_EPOCH":13673,"BSTAR":-0.00034234,"MEAN_MOTION_DOT":-4.826e-5,"MEAN_MOTION_DDOT":0},{"OBJECT_NAME":"STARLINK-30080","OBJECT_ID":"2023-067T","EPOCH":"2025-11-04T01:26:46.008672","MEAN_MOTION":15.02538316,"ECCENTRICITY":0.00012279,"INCLINATION":43.0019,"RA_OF_ASC_NODE":224.0384,"ARG_OF_PERICENTER":271.9267,"MEAN_ANOMALY":88.1435,"EPHEMERIS_TYPE":0,"CLASSIFICATION_TYPE":"U","NORAD_CAT_ID":56705,"ELEMENT_SET_NO":999,"REV_AT_EPOCH":13691,"BSTAR":2.2732467e-5,"MEAN_MOTION_DOT":1.04e-6,"MEAN_MOTION_DDOT":0},{"OBJECT_NAME":"STARLINK-30079","OBJECT_ID":"2023-067U","EPOCH":"2025-11-03T12:45:19.924704","MEAN_MOTION":15.0254745,"ECCENTRICITY":0.00010132,"INCLINATION":43.0038,"RA_OF_ASC_NODE":239.8767,"ARG_OF_PERICENTER":264.8215,"MEAN_ANOMALY":95.2512,"EPHEMERIS_TYPE":0,"CLASSIFICATION_TYPE":"U","NORAD_CAT_ID":56706,"ELEMENT_SET_NO":999,"REV_AT_EPOCH":13668,"BSTAR":0.00014627333,"MEAN_MOTION_DOT":1.773e-5,"MEAN_MOTION_DDOT":0},{"OBJECT_NAME":"STARLINK-30070","OBJECT_ID":"2023-067V","EPOCH":"2025-11-03T04:51:30.542112","MEAN_MOTION":15.02531075,"ECCENTRICITY":0.00011688,"INCLINATION":43.0042,"RA_OF_ASC_NODE":241.7086,"ARG_OF_PERICENTER":266.1647,"MEAN_ANOMALY":93.9061,"EPHEMERIS_TYPE":0,"CLASSIFICATION_TYPE":"U","NORAD_CAT_ID":56707,"ELEMENT_SET_NO":999,"REV_AT_EPOCH":13663,"BSTAR":2.6765204e-5,"MEAN_MOTION_DOT":1.58e-6,"MEAN_MOTION_DDOT":0},{"OBJECT_NAME":"STARLINK-30071","OBJECT_ID":"2023-067W","EPOCH":"2025-11-04T02:52:30.954144","MEAN_MOTION":15.02537566,"ECCENTRICITY":0.00010858,"INCLINATION":43.0046,"RA_OF_ASC_NODE":236.5485,"ARG_OF_PERICENTER":266.8492,"MEAN_ANOMALY":93.2226,"EPHEMERIS_TYPE":0,"CLASSIFICATION_TYPE":"U","NORAD_CAT_ID":56708,"ELEMENT_SET_NO":999,"REV_AT_EPOCH":13677,"BSTAR":2.419903e-5,"MEAN_MOTION_DOT":1.23e-6,"MEAN_MOTION_DDOT":0},{"OBJECT_NAME":"STARLINK-30085","OBJECT_ID":"2023-067X","EPOCH":"2025-11-03T15:52:00.981408","MEAN_MOTION":15.02536898,"ECCENTRICITY":8.446e-5,"INCLINATION":43.0019,"RA_OF_ASC_NODE":239.1302,"ARG_OF_PERICENTER":271.6338,"MEAN_ANOMALY":88.4407,"EPHEMERIS_TYPE":0,"CLASSIFICATION_TYPE":"U","NORAD_CAT_ID":56709,"ELEMENT_SET_NO":999,"REV_AT_EPOCH":13644,"BSTAR":1.950973e-6,"MEAN_MOTION_DOT":-1.77e-6,"MEAN_MOTION_DDOT":0},{"OBJECT_NAME":"STARLINK-6197","OBJECT_ID":"2023-078A","EPOCH":"2025-11-04T09:56:06.988128","MEAN_MOTION":15.10487843,"ECCENTRICITY":0.00097,"INCLINATION":69.9934,"RA_OF_ASC_NODE":313.4265,"ARG_OF_PERICENTER":300.1584,"MEAN_ANOMALY":59.862,"EPHEMERIS_TYPE":0,"CLASSIFICATION_TYPE":"U","NORAD_CAT_ID":56767,"ELEMENT_SET_NO":999,"REV_AT_EPOCH":13359,"BSTAR":0.0015181,"MEAN_MOTION_DOT":0.0002506,"MEAN_MOTION_DDOT":0}]
